[{"OBJECT_NAME":"STARLINK-35783","OBJECT_ID":"2025-247X","EPOCH":"2026-03-09T14:55:46.627680","MEAN_MOTION":15.3019825,"ECCENTRICITY":8.89e-5,"INCLINATION":53.1586,"RA_OF_ASC_NODE":191.7313,"ARG_OF_PERICENTER":80.2019,"MEAN_ANOMALY":279.9082,"EPHEMERIS_TYPE":0,"CLASSIFICATION_TYPE":"U","NORAD_CAT_ID":66286,"ELEMENT_SET_NO":999,"REV_AT_EPOCH":2102,"BSTAR":0.0012624,"MEAN_MOTION_DOT":0.00037214,"MEAN_MOTION_DDOT":0},{"OBJECT_NAME":"OBJECT L","OBJECT_ID":"2024-024L","EPOCH":"2026-03-09T22:36:05.522976","MEAN_MOTION":15.29373491,"ECCENTRICITY":0.00073185,"INCLINATION":97.3169,"RA_OF_ASC_NODE":137.7038,"ARG_OF_PERICENTER":167.6369,"MEAN_ANOMALY":192.5052,"EPHEMERIS_TYPE":0,"CLASSIFICATION_TYPE":"U","NORAD_CAT_ID":58927,"ELEMENT_SET_NO":999,"REV_AT_EPOCH":9318,"BSTAR":0.00043092344,"MEAN_MOTION_DOT":0.00012217,"MEAN_MOTION_DDOT":0}]
